<?xml version="1.0" encoding="UTF-8"?>
<ndm xmlns:xsi="http://www.w3.org/2001/XMLSchema-instance" xsi:noNamespaceSchemaLocation="https://sanaregistry.org/r/ndmxml_unqualified/ndmxml-2.0.0-master-2.0.xsd">
<omm id="CCSDS_OMM_VERS" version="2.0">
<header><CREATION_DATE/><ORIGINATOR/></header><body><segment><metadata><OBJECT_NAME>ORBCOMM FM33</OBJECT_NAME><OBJECT_ID>1999-065D</OBJECT_ID><CENTER_NAME>EARTH</CENTER_NAME><REF_FRAME>TEME</REF_FRAME><TIME_SYSTEM>UTC</TIME_SYSTEM><MEAN_ELEMENT_THEORY>SGP4</MEAN_ELEMENT_THEORY></metadata><data><meanElements><EPOCH>2024-08-18T10:40:35.133312</EPOCH><MEAN_MOTION>14.38156373</MEAN_MOTION><ECCENTRICITY>.0007887</ECCENTRICITY><INCLINATION>45.0303</INCLINATION><RA_OF_ASC_NODE>356.4812</RA_OF_ASC_NODE><ARG_OF_PERICENTER>325.8698</ARG_OF_PERICENTER><MEAN_ANOMALY>34.1643</MEAN_ANOMALY></meanElements><tleParameters><EPHEMERIS_TYPE>0</EPHEMERIS_TYPE><CLASSIFICATION_TYPE>U</CLASSIFICATION_TYPE><NORAD_CAT_ID>25983</NORAD_CAT_ID><ELEMENT_SET_NO>999</ELEMENT_SET_NO><REV_AT_EPOCH>29252</REV_AT_EPOCH><BSTAR>.13034E-2</BSTAR><MEAN_MOTION_DOT>.3852E-4</MEAN_MOTION_DOT><MEAN_MOTION_DDOT>0</MEAN_MOTION_DDOT></tleParameters></data></segment></body></omm>
<omm id="CCSDS_OMM_VERS" version="2.0">
<header><CREATION_DATE/><ORIGINATOR/></header><body><segment><metadata><OBJECT_NAME>ORBCOMM FM36</OBJECT_NAME><OBJECT_ID>1999-065E</OBJECT_ID><CENTER_NAME>EARTH</CENTER_NAME><REF_FRAME>TEME</REF_FRAME><TIME_SYSTEM>UTC</TIME_SYSTEM><MEAN_ELEMENT_THEORY>SGP4</MEAN_ELEMENT_THEORY></metadata><data><meanElements><EPOCH>2024-08-18T00:05:43.087488</EPOCH><MEAN_MOTION>14.36092565</MEAN_MOTION><ECCENTRICITY>.0003322</ECCENTRICITY><INCLINATION>45.0395</INCLINATION><RA_OF_ASC_NODE>85.7573</RA_OF_ASC_NODE><ARG_OF_PERICENTER>204.3231</ARG_OF_PERICENTER><MEAN_ANOMALY>155.7461</MEAN_ANOMALY></meanElements><tleParameters><EPHEMERIS_TYPE>0</EPHEMERIS_TYPE><CLASSIFICATION_TYPE>U</CLASSIFICATION_TYPE><NORAD_CAT_ID>25984</NORAD_CAT_ID><ELEMENT_SET_NO>999</ELEMENT_SET_NO><REV_AT_EPOCH>29080</REV_AT_EPOCH><BSTAR>.1759E-2</BSTAR><MEAN_MOTION_DOT>.5029E-4</MEAN_MOTION_DOT><MEAN_MOTION_DDOT>0</MEAN_MOTION_DDOT></tleParameters></data></segment></body></omm>
<omm id="CCSDS_OMM_VERS" version="2.0">
<header><CREATION_DATE/><ORIGINATOR/></header><body><segment><metadata><OBJECT_NAME>ORBCOMM FM35</OBJECT_NAME><OBJECT_ID>1999-065F</OBJECT_ID><CENTER_NAME>EARTH</CENTER_NAME><REF_FRAME>TEME</REF_FRAME><TIME_SYSTEM>UTC</TIME_SYSTEM><MEAN_ELEMENT_THEORY>SGP4</MEAN_ELEMENT_THEORY></metadata><data><meanElements><EPOCH>2024-08-18T01:54:14.884416</EPOCH><MEAN_MOTION>14.35531999</MEAN_MOTION><ECCENTRICITY>.0003007</ECCENTRICITY><INCLINATION>45.0394</INCLINATION><RA_OF_ASC_NODE>88.4186</RA_OF_ASC_NODE><ARG_OF_PERICENTER>324.6078</ARG_OF_PERICENTER><MEAN_ANOMALY>35.4570</MEAN_ANOMALY></meanElements><tleParameters><EPHEMERIS_TYPE>0</EPHEMERIS_TYPE><CLASSIFICATION_TYPE>U</CLASSIFICATION_TYPE><NORAD_CAT_ID>25985</NORAD_CAT_ID><ELEMENT_SET_NO>999</ELEMENT_SET_NO><REV_AT_EPOCH>29120</REV_AT_EPOCH><BSTAR>.13205E-2</BSTAR><MEAN_MOTION_DOT>.3696E-4</MEAN_MOTION_DOT><MEAN_MOTION_DDOT>0</MEAN_MOTION_DDOT></tleParameters></data></segment></body></omm>
<omm id="CCSDS_OMM_VERS" version="2.0">
<header><CREATION_DATE/><ORIGINATOR/></header><body><segment><metadata><OBJECT_NAME>ORBCOMM FM34</OBJECT_NAME><OBJECT_ID>1999-065G</OBJECT_ID><CENTER_NAME>EARTH</CENTER_NAME><REF_FRAME>TEME</REF_FRAME><TIME_SYSTEM>UTC</TIME_SYSTEM><MEAN_ELEMENT_THEORY>SGP4</MEAN_ELEMENT_THEORY></metadata><data><meanElements><EPOCH>2024-08-18T19:36:30.646368</EPOCH><MEAN_MOTION>14.35523479</MEAN_MOTION><ECCENTRICITY>.0003229</ECCENTRICITY><INCLINATION>45.0388</INCLINATION><RA_OF_ASC_NODE>85.4872</RA_OF_ASC_NODE><ARG_OF_PERICENTER>264.4997</ARG_OF_PERICENTER><MEAN_ANOMALY>95.5483</MEAN_ANOMALY></meanElements><tleParameters><EPHEMERIS_TYPE>0</EPHEMERIS_TYPE><CLASSIFICATION_TYPE>U</CLASSIFICATION_TYPE><NORAD_CAT_ID>25986</NORAD_CAT_ID><ELEMENT_SET_NO>999</ELEMENT_SET_NO><REV_AT_EPOCH>29146</REV_AT_EPOCH><BSTAR>.11059E-2</BSTAR><MEAN_MOTION_DOT>.3071E-4</MEAN_MOTION_DOT><MEAN_MOTION_DDOT>0</MEAN_MOTION_DDOT></tleParameters></data></segment></body></omm>
<omm id="CCSDS_OMM_VERS" version="2.0">
<header><CREATION_DATE/><ORIGINATOR/></header><body><segment><metadata><OBJECT_NAME>ORBCOMM FM38</OBJECT_NAME><OBJECT_ID>2008-031A</OBJECT_ID><CENTER_NAME>EARTH</CENTER_NAME><REF_FRAME>TEME</REF_FRAME><TIME_SYSTEM>UTC</TIME_SYSTEM><MEAN_ELEMENT_THEORY>SGP4</MEAN_ELEMENT_THEORY></metadata><data><meanElements><EPOCH>2024-08-18T13:28:09.869376</EPOCH><MEAN_MOTION>14.78316751</MEAN_MOTION><ECCENTRICITY>.0005289</ECCENTRICITY><INCLINATION>48.4410</INCLINATION><RA_OF_ASC_NODE>314.5560</RA_OF_ASC_NODE><ARG_OF_PERICENTER>193.0292</ARG_OF_PERICENTER><MEAN_ANOMALY>167.0486</MEAN_ANOMALY></meanElements><tleParameters><EPHEMERIS_TYPE>0</EPHEMERIS_TYPE><CLASSIFICATION_TYPE>U</CLASSIFICATION_TYPE><NORAD_CAT_ID>33060</NORAD_CAT_ID><ELEMENT_SET_NO>999</ELEMENT_SET_NO><REV_AT_EPOCH>86991</REV_AT_EPOCH><BSTAR>.89147E-3</BSTAR><MEAN_MOTION_DOT>.6348E-4</MEAN_MOTION_DOT><MEAN_MOTION_DDOT>0</MEAN_MOTION_DDOT></tleParameters></data></segment></body></omm>
<omm id="CCSDS_OMM_VERS" version="2.0">
<header><CREATION_DATE/><ORIGINATOR/></header><body><segment><metadata><OBJECT_NAME>ORBCOMM FM41</OBJECT_NAME><OBJECT_ID>2008-031B</OBJECT_ID><CENTER_NAME>EARTH</CENTER_NAME><REF_FRAME>TEME</REF_FRAME><TIME_SYSTEM>UTC</TIME_SYSTEM><MEAN_ELEMENT_THEORY>SGP4</MEAN_ELEMENT_THEORY></metadata><data><meanElements><EPOCH>2024-08-18T05:21:51.319296</EPOCH><MEAN_MOTION>14.78033108</MEAN_MOTION><ECCENTRICITY>.0004194</ECCENTRICITY><INCLINATION>48.4452</INCLINATION><RA_OF_ASC_NODE>323.0174</RA_OF_ASC_NODE><ARG_OF_PERICENTER>178.9382</ARG_OF_PERICENTER><MEAN_ANOMALY>199.9118</MEAN_ANOMALY></meanElements><tleParameters><EPHEMERIS_TYPE>0</EPHEMERIS_TYPE><CLASSIFICATION_TYPE>U</CLASSIFICATION_TYPE><NORAD_CAT_ID>33061</NORAD_CAT_ID><ELEMENT_SET_NO>999</ELEMENT_SET_NO><REV_AT_EPOCH>86937</REV_AT_EPOCH><BSTAR>.94948E-3</BSTAR><MEAN_MOTION_DOT>.6729E-4</MEAN_MOTION_DOT><MEAN_MOTION_DDOT>0</MEAN_MOTION_DDOT></tleParameters></data></segment></body></omm>
<omm id="CCSDS_OMM_VERS" version="2.0">
<header><CREATION_DATE/><ORIGINATOR/></header><body><segment><metadata><OBJECT_NAME>ORBCOMM FM29</OBJECT_NAME><OBJECT_ID>2008-031C</OBJECT_ID><CENTER_NAME>EARTH</CENTER_NAME><REF_FRAME>TEME</REF_FRAME><TIME_SYSTEM>UTC</TIME_SYSTEM><MEAN_ELEMENT_THEORY>SGP4</MEAN_ELEMENT_THEORY></metadata><data><meanElements><EPOCH>2024-08-18T11:59:09.804192</EPOCH><MEAN_MOTION>14.77993639</MEAN_MOTION><ECCENTRICITY>.0006027</ECCENTRICITY><INCLINATION>48.4405</INCLINATION><RA_OF_ASC_NODE>329.7405</RA_OF_ASC_NODE><ARG_OF_PERICENTER>174.2683</ARG_OF_PERICENTER><MEAN_ANOMALY>276.1149</MEAN_ANOMALY></meanElements><tleParameters><EPHEMERIS_TYPE>0</EPHEMERIS_TYPE><CLASSIFICATION_TYPE>U</CLASSIFICATION_TYPE><NORAD_CAT_ID>33062</NORAD_CAT_ID><ELEMENT_SET_NO>999</ELEMENT_SET_NO><REV_AT_EPOCH>86971</REV_AT_EPOCH><BSTAR>.86811E-3</BSTAR><MEAN_MOTION_DOT>.6128E-4</MEAN_MOTION_DOT><MEAN_MOTION_DDOT>0</MEAN_MOTION_DDOT></tleParameters></data></segment></body></omm>
<omm id="CCSDS_OMM_VERS" version="2.0">
<header><CREATION_DATE/><ORIGINATOR/></header><body><segment><metadata><OBJECT_NAME>ORBCOMM FM39</OBJECT_NAME><OBJECT_ID>2008-031D</OBJECT_ID><CENTER_NAME>EARTH</CENTER_NAME><REF_FRAME>TEME</REF_FRAME><TIME_SYSTEM>UTC</TIME_SYSTEM><MEAN_ELEMENT_THEORY>SGP4</MEAN_ELEMENT_THEORY></metadata><data><meanElements><EPOCH>2024-08-18T17:19:07.982688</EPOCH><MEAN_MOTION>14.76899645</MEAN_MOTION><ECCENTRICITY>.0006744</ECCENTRICITY><INCLINATION>48.4419</INCLINATION><RA_OF_ASC_NODE>349.9947</RA_OF_ASC_NODE><ARG_OF_PERICENTER>147.5021</ARG_OF_PERICENTER><MEAN_ANOMALY>212.6309</MEAN_ANOMALY></meanElements><tleParameters><EPHEMERIS_TYPE>0</EPHEMERIS_TYPE><CLASSIFICATION_TYPE>U</CLASSIFICATION_TYPE><NORAD_CAT_ID>33063</NORAD_CAT_ID><ELEMENT_SET_NO>999</ELEMENT_SET_NO><REV_AT_EPOCH>86946</REV_AT_EPOCH><BSTAR>.83352E-3</BSTAR><MEAN_MOTION_DOT>.5722E-4</MEAN_MOTION_DOT><MEAN_MOTION_DDOT>0</MEAN_MOTION_DDOT></tleParameters></data></segment></body></omm>

</ndm>
