ORBCOMM FM33            
1 25983U 99065D   24231.44485108  .00003852  00000+0  13034-2 0  9992
2 25983  45.0303 356.4812 0007887 325.8698  34.1643 14.38156373292526
ORBCOMM FM36            
1 25984U 99065E   24231.00397092  .00005029  00000+0  17590-2 0  9998
2 25984  45.0395  85.7573 0003322 204.3231 155.7461 14.36092565290805
ORBCOMM FM35            
1 25985U 99065F   24231.07933894  .00003696  00000+0  13205-2 0  9999
2 25985  45.0394  88.4186 0003007 324.6078  35.4570 14.35531999291208
ORBCOMM FM34            
1 25986U 99065G   24231.81702137  .00003071  00000+0  11059-2 0  9998
2 25986  45.0388  85.4872 0003229 264.4997  95.5483 14.35523479291460
ORBCOMM FM38            
1 33060U 08031A   24231.56122534  .00006348  00000+0  89147-3 0  9996
2 33060  48.4410 314.5560 0005289 193.0292 167.0486 14.78316751869917
ORBCOMM FM41            
1 33061U 08031B   24231.22351064  .00006729  00000+0  94948-3 0  9990
2 33061  48.4452 323.0174 0004194 178.9382 199.9118 14.78033108869374
ORBCOMM FM29            
1 33062U 08031C   24231.49941903  .00006128  00000+0  86811-3 0  9990
2 33062  48.4405 329.7405 0006027 174.2683 276.1149 14.77993639869716
ORBCOMM FM39            
1 33063U 08031D   24231.72162017  .00005722  00000+0  83352-3 0  9994
2 33063  48.4419 349.9947 0006744 147.5021 212.6309 14.76899645869468
